[{"OBJECT_NAME":"GEESAT-5 06","OBJECT_ID":"2025-201F","EPOCH":"2026-03-09T12:12:25.250112","MEAN_MOTION":14.83771772,"ECCENTRICITY":0.00144332,"INCLINATION":49.9906,"RA_OF_ASC_NODE":141.562,"ARG_OF_PERICENTER":298.4848,"MEAN_ANOMALY":61.4637,"EPHEMERIS_TYPE":0,"CLASSIFICATION_TYPE":"U","NORAD_CAT_ID":65555,"ELEMENT_SET_NO":999,"REV_AT_EPOCH":2698,"BSTAR":0.00016353536,"MEAN_MOTION_DOT":1.141e-5,"MEAN_MOTION_DDOT":0},{"OBJECT_NAME":"SL-16 R\/B","OBJECT_ID":"1999-039B","EPOCH":"2026-03-09T18:24:22.966272","MEAN_MOTION":14.8173167,"ECCENTRICITY":0.00135065,"INCLINATION":97.9966,"RA_OF_ASC_NODE":127.8636,"ARG_OF_PERICENTER":255.8246,"MEAN_ANOMALY":104.1466,"EPHEMERIS_TYPE":0,"CLASSIFICATION_TYPE":"U","NORAD_CAT_ID":25861,"ELEMENT_SET_NO":999,"REV_AT_EPOCH":43687,"BSTAR":9.8724714e-5,"MEAN_MOTION_DOT":7.25e-6,"MEAN_MOTION_DDOT":0}]
